NORAD_CAT_ID,OBJECT_NAME,OBJECT_TYPE,EPOCH,MEAN_MOTION,ECCENTRICITY,INCLINATION,RA_OF_ASC_NODE,ARG_OF_PERICENTER,MEAN_ANOMALY,BSTAR,MEAN_MOTION_DOT,MEAN_MOTION_DDOT,TLE_LINE0,TLE_LINE1,TLE_LINE2,SEMIMAJOR_AXIS,PERIOD,APOGEE,PERIGEE,DECAYED
53936.0,STARLINK-4791,PAYLOAD,2024-03-06 18:34:15,15.08857966,0.0001544,53.2166,349.0459,116.0985,244.0166,0.0012837,0.00020211,0.0,0 STARLINK-4791,1 53936U 22119BC  24066.77379025  .00020211  00000-0  12837-2 0  9998,2 53936  53.2166 349.0459 0001544 116.0985 244.0166 15.08857966 80971,6917.825,95.436,540.759,538.622,0.0
53936.0,STARLINK-4791,PAYLOAD,2024-03-07 04:06:34,15.08851041,0.000115,53.2164,347.2627,99.731,260.3812,0.0011165,0.00017531,0.0,0 STARLINK-4791,1 53936U 22119BC  24067.17123055  .00017531  00000-0  11165-2 0  9997,2 53936  53.2164 347.2627 0001150  99.7310 260.3812 15.08851041 81033,6917.847,95.437,540.507,538.916,0.0
53936.0,STARLINK-4791,PAYLOAD,2024-03-07 12:03:29,15.08854699,0.0001266,53.216,345.7747,93.4911,266.6226,0.00099268,0.00015552,0.0,0 STARLINK-4791,1 53936U 22119BC  24067.50242899  .00015552  00000-0  99268-3 0  9994,2 53936  53.2160 345.7747 0001266  93.4911 266.6226 15.08854699 81514,6917.835,95.437,540.576,538.825,0.0
53936.0,STARLINK-4791,PAYLOAD,2024-03-08 00:46:35,15.08851969,0.0001363,53.2167,343.3975,88.9716,271.1432,0.0012915,0.00020333,0.0,0 STARLINK-4791,1 53936U 22119BC  24068.03235004  .00020333  00000-0  12915-2 0  9999,2 53936  53.2167 343.3975 0001363  88.9716 271.1432 15.08851969 81166,6917.844,95.437,540.652,538.766,0.0
53936.0,STARLINK-4791,PAYLOAD,2024-03-08 11:54:16,15.08861135,0.0001402,53.2169,341.313,89.8744,270.2409,0.0010986,0.0001725,0.0,0 STARLINK-4791,1 53936U 22119BC  24068.49602518  .00017250  00000-0  10986-2 0  9997,2 53936  53.2169 341.3130 0001402  89.8744 270.2409 15.08861135 81669,6917.816,95.436,540.651,538.711,0.0
53936.0,STARLINK-4791,PAYLOAD,2024-03-09 03:48:08,15.08852017,0.0001355,53.2177,338.34,81.4197,278.6949,0.00074591,0.00011607,0.0,0 STARLINK-4791,1 53936U 22119BC  24069.15842664  .00011607  00000-0  74591-3 0  9992,2 53936  53.2177 338.3400 0001355  81.4197 278.6949 15.08852017 81335,6917.844,95.437,540.646,538.771,0.0
53936.0,STARLINK-4791,PAYLOAD,2024-03-10 03:38:54,15.08860018,0.0001329,53.2179,333.8814,88.3305,271.7839,0.00079397,0.00012378,0.0,0 STARLINK-4791,1 53936U 22119BC  24070.15202249  .00012378  00000-0  79397-3 0  9998,2 53936  53.2179 333.8814 0001329  88.3305 271.7839 15.08860018 81482,6917.819,95.436,540.604,538.765,0.0
53936.0,STARLINK-4791,PAYLOAD,2024-03-10 10:00:26,15.08863697,0.0001326,53.2178,332.692,88.7609,271.3535,0.00078828,0.00012288,0.0,0 STARLINK-4791,1 53936U 22119BC  24070.41697890  .00012288  00000-0  78828-3 0  9995,2 53936  53.2178 332.6920 0001326  88.7609 271.3535 15.08863697 81951,6917.808,95.436,540.59,538.756,0.0
53936.0,STARLINK-4791,PAYLOAD,2024-03-10 21:08:09,15.08833284,0.0001584,53.2174,330.6108,88.9145,271.2029,-0.00032426,-5.444e-05,0.0,0 STARLINK-4791,1 53936U 22119BC  24070.88066777 -.00005444  00000-0 -32426-3 0  9992,2 53936  53.2174 330.6108 0001584  88.9145 271.2029 15.08833284 81592,6917.901,95.438,540.862,538.67,0.0
53936.0,STARLINK-4791,PAYLOAD,2024-03-10 22:43:32,15.08831717,0.000161,53.2174,330.3136,87.6003,272.5173,-0.0002081,-3.598e-05,0.0,0 STARLINK-4791,1 53936U 22119BC  24070.94690839 -.00003598  00000-0 -20810-3 0  9993,2 53936  53.2174 330.3136 0001610  87.6003 272.5173 15.08831717 82032,6917.906,95.438,540.884,538.657,0.0
53936.0,STARLINK-4791,PAYLOAD,2024-03-11 09:51:15,15.08840001,0.0001542,53.2167,328.2324,85.1933,274.9236,0.00084542,0.00013192,0.0,0 STARLINK-4791,1 53936U 22119BC  24071.41059133  .00013192  00000-0  84542-3 0  9993,2 53936  53.2167 328.2324 0001542  85.1933 274.9236 15.08840001 82108,6917.88,95.438,540.812,538.679,0.0
53936.0,STARLINK-4791,PAYLOAD,2024-03-11 17:48:11,15.08834809,0.0001701,53.2174,326.748,97.181,262.9375,0.00041229,6.279e-05,0.0,0 STARLINK-4791,1 53936U 22119BC  24071.74179475  .00006279  00000-0  41229-3 0  9994,2 53936  53.2174 326.7480 0001701  97.1810 262.9375 15.08834809 81723,6917.896,95.438,540.938,538.585,0.0
53936.0,STARLINK-4791,PAYLOAD,2024-03-12 16:03:34,15.08851422,0.0001729,53.2173,322.5852,99.6138,260.505,0.00052249,8.04e-05,0.0,0 STARLINK-4791,1 53936U 22119BC  24072.66915109  .00008040  00000-0  52249-3 0  9990,2 53936  53.2173 322.5852 0001729  99.6138 260.5050 15.08851422 82296,6917.845,95.437,540.907,538.514,0.0
53936.0,STARLINK-4791,PAYLOAD,2024-03-13 01:35:53,15.08851518,0.0001438,53.2154,320.7966,95.8856,264.23,0.00049324,7.573e-05,0.0,0 STARLINK-4791,1 53936U 22119BC  24073.06659061  .00007573  00000-0  49324-3 0  9997,2 53936  53.2154 320.7966 0001438  95.8856 264.2300 15.08851518 81927,6917.845,95.437,540.705,538.715,0.0
53936.0,STARLINK-4791,PAYLOAD,2024-03-13 09:32:48,15.08852755,0.000152,53.2154,319.3085,87.2916,272.825,0.00036735,5.565e-05,0.0,0 STARLINK-4791,1 53936U 22119BC  24073.39778884  .00005565  00000-0  36735-3 0  9999,2 53936  53.2154 319.3085 0001520  87.2916 272.8250 15.08852755 82404,6917.841,95.437,540.758,538.655,0.0
53936.0,STARLINK-4791,PAYLOAD,2024-03-13 22:15:54,15.08842635,0.0001318,53.2154,316.9286,95.2655,264.8488,9.7763e-05,1.268e-05,0.0,0 STARLINK-4791,1 53936U 22119BC  24073.92771021  .00001268  00000-0  97763-4 0  9999,2 53936  53.2154 316.9286 0001318  95.2655 264.8488 15.08842635 82482,6917.872,95.437,540.649,538.826,0.0
53936.0,STARLINK-4791,PAYLOAD,2024-03-14 01:26:40,15.08845689,0.0001234,53.216,316.3336,95.2413,264.872,0.00020092,2.912e-05,0.0,0 STARLINK-4791,1 53936U 22119BC  24074.06018914  .00002912  00000-0  20092-3 0  9997,2 53936  53.2160 316.3336 0001234  95.2413 264.8720 15.08845689 82074,6917.863,95.437,540.582,538.874,0.0
53936.0,STARLINK-4791,PAYLOAD,2024-03-14 20:31:18,15.08838966,0.0001535,53.2163,312.7655,99.1385,260.9781,0.00022948,3.366e-05,0.0,0 STARLINK-4791,1 53936U 22119BC  24074.85507211  .00003366  00000-0  22948-3 0  9993,2 53936  53.2163 312.7655 0001535  99.1385 260.9781 15.08838966 82193,6917.884,95.438,540.81,538.687,0.0
53936.0,STARLINK-4791,PAYLOAD,2024-03-14 22:06:41,15.08835321,0.0001401,53.2153,312.4694,86.3592,273.756,0.00027718,4.126e-05,0.0,0 STARLINK-4791,1 53936U 22119BC  24074.92131276  .00004126  00000-0  27718-3 0  9990,2 53936  53.2153 312.4694 0001401  86.3592 273.7560 15.08835321 82630,6917.895,95.438,540.729,538.79,0.0
53936.0,STARLINK-4791,PAYLOAD,2024-03-15 21:57:28,15.08844085,0.0001376,53.2162,308.0061,94.6691,265.4458,0.00036948,5.598e-05,0.0,0 STARLINK-4791,1 53936U 22119BC  24075.91491334  .00005598  00000-0  36948-3 0  9993,2 53936  53.2162 308.0061 0001376  94.6691 265.4458 15.08844085 82789,6917.868,95.437,540.685,538.781,0.0
53936.0,STARLINK-4791,PAYLOAD,2024-03-16 01:08:14,15.08843552,0.0001412,53.2162,307.4124,90.7198,269.3956,0.00037548,5.693e-05,0.0,0 STARLINK-4791,1 53936U 22119BC  24076.04739404  .00005693  00000-0  37548-3 0  9994,2 53936  53.2162 307.4124 0001412  90.7198 269.3956 15.08843552 82371,6917.87,95.437,540.711,538.758,0.0
53936.0,STARLINK-4791,PAYLOAD,2024-03-16 12:15:56,15.08843565,0.0001302,53.2156,305.3299,94.5583,265.5558,0.0002552,3.776e-05,0.0,0 STARLINK-4791,1 53936U 22119BC  24076.51107346  .00003776  00000-0  25520-3 0  9997,2 53936  53.2156 305.3299 0001302  94.5583 265.5558 15.08843565 82877,6917.869,95.437,540.635,538.834,0.0
53936.0,STARLINK-4791,PAYLOAD,2024-03-16 20:12:52,15.08836024,0.00014,53.2163,303.844,91.3188,268.7964,8.2836e-05,1.031e-05,0.0,0 STARLINK-4791,1 53936U 22119BC  24076.84227720  .00001031  00000-0  82836-4 0  9998,2 53936  53.2163 303.8440 0001400  91.3188 268.7964 15.08836024 82497,6917.893,95.438,540.726,538.789,0.0
53936.0,STARLINK-4791,PAYLOAD,2024-03-16 21:48:15,15.088362,0.0001375,53.216,303.5469,79.0569,281.0578,5.1875e-05,5.38e-06,0.0,0 STARLINK-4791,1 53936U 22119BC  24076.90851742  .00000538  00000-0  51875-4 0  9992,2 53936  53.2160 303.5469 0001375  79.0569 281.0578 15.08836200 82933,6917.892,95.438,540.708,538.806,0.0
53936.0,STARLINK-4791,PAYLOAD,2024-03-17 00:59:02,15.08836783,0.0001367,53.2161,302.9523,80.8107,279.304,7.1008e-05,8.42e-06,0.0,0 STARLINK-4791,1 53936U 22119BC  24077.04099791  .00000842  00000-0  71008-4 0  9994,2 53936  53.2161 302.9523 0001367  80.8107 279.3040 15.08836783 82959,6917.89,95.438,540.701,538.81,0.0
53936.0,STARLINK-4791,PAYLOAD,2024-03-17 21:39:02,15.08841432,0.0001364,53.2161,299.0868,80.7825,279.3322,9.021e-05,1.148e-05,0.0,0 STARLINK-4791,1 53936U 22119BC  24077.90211564  .00001148  00000-0  90210-4 0  9999,2 53936  53.2161 299.0868 0001364  80.7825 279.3322 15.08841432 83085,6917.876,95.437,540.685,538.797,0.0
53936.0,STARLINK-4791,PAYLOAD,2024-03-18 15:08:17,15.08837363,0.0001344,53.2163,295.8157,92.5236,267.591,0.00014539,2.027e-05,0.0,0 STARLINK-4791,1 53936U 22119BC  24078.63075782  .00002027  00000-0  14539-3 0  9996,2 53936  53.2163 295.8157 0001344  92.5236 267.5910 15.08837363 83199,6917.888,95.438,540.683,538.824,0.0
53936.0,STARLINK-4791,PAYLOAD,2024-03-19 00:40:36,15.08838548,0.0001319,53.2162,294.0322,97.2269,262.8873,0.00010337,1.358e-05,0.0,0 STARLINK-4791,1 53936U 22119BC  24079.02819870  .00001358  00000-0  10337-3 0  9992,2 53936  53.2162 294.0322 0001319  97.2269 262.8873 15.08838548 82824,6917.885,95.438,540.662,538.837,0.0
53936.0,STARLINK-4791,PAYLOAD,2024-03-19 21:20:36,15.08848199,0.0001337,53.2166,290.1679,88.6959,271.4186,0.00014398,2.005e-05,0.0,0 STARLINK-4791,1 53936U 22119BC  24079.88931290  .00002005  00000-0  14398-3 0  9998,2 53936  53.2166 290.1679 0001337  88.6959 271.4186 15.08848199 82950,6917.855,95.437,540.645,538.795,0.0
53936.0,STARLINK-4791,PAYLOAD,2024-03-20 21:11:25,15.08815634,0.0001428,53.2153,285.708,72.0796,288.0352,0.000429,6.542e-05,0.0,0 STARLINK-4791,1 53936U 22119BC  24080.88293169  .00006542  00000-0  42900-3 0  9996,2 53936  53.2153 285.7080 0001428  72.0796 288.0352 15.08815634 83104,6917.955,95.439,540.808,538.832,0.0
